[{"OBJECT_NAME":"SL-14 R/B","OBJECT_ID":"1986-006B","EPOCH":"2026-04-06T20:28:39.629280","MEAN_MOTION":14.86867742,"ECCENTRICITY":0.0076538,"INCLINATION":82.5266,"RA_OF_ASC_NODE":233.2265,"ARG_OF_PERICENTER":178.2391,"MEAN_ANOMALY":181.9112,"EPHEMERIS_TYPE":0,"CLASSIFICATION_TYPE":"U","NORAD_CAT_ID":16496,"ELEMENT_SET_NO":999,"REV_AT_EPOCH":15339,"BSTAR":0.00012077698,"MEAN_MOTION_DOT":1.164e-5,"MEAN_MOTION_DDOT":0},{"OBJECT_NAME":"COSMOS 1743","OBJECT_ID":"1986-034A","EPOCH":"2026-04-07T06:07:26.548896","MEAN_MOTION":15.61248779,"ECCENTRICITY":0.00061447,"INCLINATION":82.5316,"RA_OF_ASC_NODE":43.7961,"ARG_OF_PERICENTER":148.654,"MEAN_ANOMALY":211.5085,"EPHEMERIS_TYPE":0,"CLASSIFICATION_TYPE":"U","NORAD_CAT_ID":16719,"ELEMENT_SET_NO":999,"REV_AT_EPOCH":18470,"BSTAR":0.00067357699,"MEAN_MOTION_DOT":0.00057418,"MEAN_MOTION_DDOT":0},{"OBJECT_NAME":"SL-14 R/B","OBJECT_ID":"1986-046B","EPOCH":"2026-04-07T03:55:30.780480","MEAN_MOTION":14.85621483,"ECCENTRICITY":0.00242454,"INCLINATION":82.4821,"RA_OF_ASC_NODE":53.2731,"ARG_OF_PERICENTER":131.3405,"MEAN_ANOMALY":228.9903,"EPHEMERIS_TYPE":0,"CLASSIFICATION_TYPE":"U","NORAD_CAT_ID":16792,"ELEMENT_SET_NO":999,"REV_AT_EPOCH":13063,"BSTAR":6.8605457e-5,"MEAN_MOTION_DOT":6.21e-6,"MEAN_MOTION_DDOT":0},{"OBJECT_NAME":"SL-14 R/B","OBJECT_ID":"1986-055B","EPOCH":"2026-04-07T06:47:56.091840","MEAN_MOTION":14.85670803,"ECCENTRICITY":0.0017557,"INCLINATION":82.5169,"RA_OF_ASC_NODE":99.7894,"ARG_OF_PERICENTER":234.8063,"MEAN_ANOMALY":135.6906,"EPHEMERIS_TYPE":0,"CLASSIFICATION_TYPE":"U","NORAD_CAT_ID":16882,"ELEMENT_SET_NO":999,"REV_AT_EPOCH":12361,"BSTAR":5.9884715e-5,"MEAN_MOTION_DOT":5.44e-6,"MEAN_MOTION_DDOT":0},{"OBJECT_NAME":"AJISAI (EGS)","OBJECT_ID":"1986-061A","EPOCH":"2026-04-07T05:59:04.126848","MEAN_MOTION":12.44515676,"ECCENTRICITY":0.00113934,"INCLINATION":50.0122,"RA_OF_ASC_NODE":5.5279,"ARG_OF_PERICENTER":0.4748,"MEAN_ANOMALY":180.4672,"EPHEMERIS_TYPE":0,"CLASSIFICATION_TYPE":"U","NORAD_CAT_ID":16908,"ELEMENT_SET_NO":999,"REV_AT_EPOCH":47155,"BSTAR":3.8579322e-5,"MEAN_MOTION_DOT":-9.2e-7,"MEAN_MOTION_DDOT":0},{"OBJECT_NAME":"SL-14 R/B","OBJECT_ID":"1987-024B","EPOCH":"2026-04-07T04:28:40.550016","MEAN_MOTION":14.86162617,"ECCENTRICITY":0.00186491,"INCLINATION":82.5269,"RA_OF_ASC_NODE":65.9729,"ARG_OF_PERICENTER":161.6969,"MEAN_ANOMALY":198.4923,"EPHEMERIS_TYPE":0,"CLASSIFICATION_TYPE":"U","NORAD_CAT_ID":17567,"ELEMENT_SET_NO":999,"REV_AT_EPOCH":9236,"BSTAR":6.6996036e-5,"MEAN_MOTION_DOT":6.14e-6,"MEAN_MOTION_DDOT":0},{"OBJECT_NAME":"COSMOS 1833","OBJECT_ID":"1987-027A","EPOCH":"2026-04-07T04:13:47.271648","MEAN_MOTION":14.1304272,"ECCENTRICITY":0.00228491,"INCLINATION":70.9163,"RA_OF_ASC_NODE":266.1408,"ARG_OF_PERICENTER":171.7148,"MEAN_ANOMALY":188.4355,"EPHEMERIS_TYPE":0,"CLASSIFICATION_TYPE":"U","NORAD_CAT_ID":17589,"ELEMENT_SET_NO":999,"REV_AT_EPOCH":1434,"BSTAR":-0.00014123095,"MEAN_MOTION_DOT":-3.12e-6,"MEAN_MOTION_DDOT":0},{"OBJECT_NAME":"SL-16 R/B","OBJECT_ID":"1987-027B","EPOCH":"2026-04-07T06:41:43.764000","MEAN_MOTION":14.17169957,"ECCENTRICITY":0.00028595,"INCLINATION":71.0032,"RA_OF_ASC_NODE":216.2464,"ARG_OF_PERICENTER":69.3332,"MEAN_ANOMALY":290.8099,"EPHEMERIS_TYPE":0,"CLASSIFICATION_TYPE":"U","NORAD_CAT_ID":17590,"ELEMENT_SET_NO":999,"REV_AT_EPOCH":1939,"BSTAR":9.6161528e-5,"MEAN_MOTION_DOT":1.46e-6,"MEAN_MOTION_DDOT":0},{"OBJECT_NAME":"SL-14 R/B","OBJECT_ID":"1987-038B","EPOCH":"2026-04-07T04:42:28.270656","MEAN_MOTION":14.85398484,"ECCENTRICITY":0.00206723,"INCLINATION":82.498,"RA_OF_ASC_NODE":269.9443,"ARG_OF_PERICENTER":71.9239,"MEAN_ANOMALY":288.4227,"EPHEMERIS_TYPE":0,"CLASSIFICATION_TYPE":"U","NORAD_CAT_ID":17912,"ELEMENT_SET_NO":999,"REV_AT_EPOCH":8346,"BSTAR":6.3495576e-5,"MEAN_MOTION_DOT":5.73e-6,"MEAN_MOTION_DDOT":0},{"OBJECT_NAME":"COSMOS 1844","OBJECT_ID":"1987-041A","EPOCH":"2026-04-07T02:38:49.128576","MEAN_MOTION":14.14563739,"ECCENTRICITY":0.00317318,"INCLINATION":70.9015,"RA_OF_ASC_NODE":334.2319,"ARG_OF_PERICENTER":336.0852,"MEAN_ANOMALY":23.8794,"EPHEMERIS_TYPE":0,"CLASSIFICATION_TYPE":"U","NORAD_CAT_ID":17973,"ELEMENT_SET_NO":999,"REV_AT_EPOCH":760,"BSTAR":0.00013581908,"MEAN_MOTION_DOT":2.14e-6,"MEAN_MOTION_DDOT":0},{"OBJECT_NAME":"SL-14 R/B","OBJECT_ID":"1987-055B","EPOCH":"2026-04-07T02:24:55.185408","MEAN_MOTION":14.85658434,"ECCENTRICITY":0.0019131,"INCLINATION":82.499,"RA_OF_ASC_NODE":322.2562,"ARG_OF_PERICENTER":280.6336,"MEAN_ANOMALY":79.2726,"EPHEMERIS_TYPE":0,"CLASSIFICATION_TYPE":"U","NORAD_CAT_ID":18153,"ELEMENT_SET_NO":999,"REV_AT_EPOCH":7415,"BSTAR":5.09598e-5,"MEAN_MOTION_DOT":4.67e-6,"MEAN_MOTION_DDOT":0},{"OBJECT_NAME":"COSMOS 1867","OBJECT_ID":"1987-060A","EPOCH":"2026-04-06T19:19:13.376352","MEAN_MOTION":14.3150782,"ECCENTRICITY":0.00149956,"INCLINATION":65.0103,"RA_OF_ASC_NODE":227.9645,"ARG_OF_PERICENTER":280.2306,"MEAN_ANOMALY":79.7087,"EPHEMERIS_TYPE":0,"CLASSIFICATION_TYPE":"U","NORAD_CAT_ID":18187,"ELEMENT_SET_NO":999,"REV_AT_EPOCH":2396,"BSTAR":3.7183809e-5,"MEAN_MOTION_DOT":-1.0e-8,"MEAN_MOTION_DDOT":0},{"OBJECT_NAME":"SL-14 R/B","OBJECT_ID":"1988-001B","EPOCH":"2026-04-07T03:58:04.622592","MEAN_MOTION":14.8556025,"ECCENTRICITY":0.00190781,"INCLINATION":82.5154,"RA_OF_ASC_NODE":168.5864,"ARG_OF_PERICENTER":140.6589,"MEAN_ANOMALY":219.6017,"EPHEMERIS_TYPE":0,"CLASSIFICATION_TYPE":"U","NORAD_CAT_ID":18749,"ELEMENT_SET_NO":999,"REV_AT_EPOCH":4625,"BSTAR":5.5656715e-5,"MEAN_MOTION_DOT":5.07e-6,"MEAN_MOTION_DDOT":0},{"OBJECT_NAME":"COSMOS 1933","OBJECT_ID":"1988-020A","EPOCH":"2026-04-07T01:36:05.593824","MEAN_MOTION":15.18280956,"ECCENTRICITY":0.000541,"INCLINATION":82.5147,"RA_OF_ASC_NODE":222.8297,"ARG_OF_PERICENTER":100.6357,"MEAN_ANOMALY":259.5486,"EPHEMERIS_TYPE":0,"CLASSIFICATION_TYPE":"U","NORAD_CAT_ID":18958,"ELEMENT_SET_NO":999,"REV_AT_EPOCH":5453,"BSTAR":0.00022898,"MEAN_MOTION_DOT":4.723e-5,"MEAN_MOTION_DDOT":0},{"OBJECT_NAME":"SL-3 R/B","OBJECT_ID":"1988-032B","EPOCH":"2026-04-07T05:40:17.887296","MEAN_MOTION":15.20247441,"ECCENTRICITY":0.00272452,"INCLINATION":97.523,"RA_OF_ASC_NODE":80.4001,"ARG_OF_PERICENTER":131.8518,"MEAN_ANOMALY":228.5049,"EPHEMERIS_TYPE":0,"CLASSIFICATION_TYPE":"U","NORAD_CAT_ID":19046,"ELEMENT_SET_NO":999,"REV_AT_EPOCH":5644,"BSTAR":0.00027388264,"MEAN_MOTION_DOT":5.929e-5,"MEAN_MOTION_DDOT":0},{"OBJECT_NAME":"SL-16 R/B","OBJECT_ID":"1988-039B","EPOCH":"2026-04-07T03:58:04.283040","MEAN_MOTION":14.19620832,"ECCENTRICITY":0.00239263,"INCLINATION":71.0175,"RA_OF_ASC_NODE":8.3364,"ARG_OF_PERICENTER":293.7285,"MEAN_ANOMALY":66.133,"EPHEMERIS_TYPE":0,"CLASSIFICATION_TYPE":"U","NORAD_CAT_ID":19120,"ELEMENT_SET_NO":999,"REV_AT_EPOCH":96242,"BSTAR":1.9849773e-5,"MEAN_MOTION_DOT":-6.0e-8,"MEAN_MOTION_DDOT":0},{"OBJECT_NAME":"COSMOS 1953","OBJECT_ID":"1988-050A","EPOCH":"2026-04-07T03:56:04.917120","MEAN_MOTION":15.28997978,"ECCENTRICITY":0.00115809,"INCLINATION":82.5054,"RA_OF_ASC_NODE":129.5971,"ARG_OF_PERICENTER":33.3228,"MEAN_ANOMALY":326.8739,"EPHEMERIS_TYPE":0,"CLASSIFICATION_TYPE":"U","NORAD_CAT_ID":19210,"ELEMENT_SET_NO":999,"REV_AT_EPOCH":4213,"BSTAR":0.00031428581,"MEAN_MOTION_DOT":8.899e-5,"MEAN_MOTION_DDOT":0}]
