SL-14 R/B               
1 16496U 86006B   26096.85323645  .00001164  00000+0  12078-3 0  9997
2 16496  82.5266 233.2265 0076538 178.2391 181.9112 14.86867742153397
COSMOS 1743             
1 16719U 86034A   26097.25516839  .00057418  00000+0  67358-3 0  9994
2 16719  82.5316  43.7961 0006144 148.6540 211.5085 15.61248779184706
SL-14 R/B               
1 16792U 86046B   26097.16355070  .00000621  00000+0  68605-4 0  9997
2 16792  82.4821  53.2731 0024245 131.3405 228.9903 14.85621483130635
SL-14 R/B               
1 16882U 86055B   26097.28328810  .00000544  00000+0  59885-4 0  9996
2 16882  82.5169  99.7894 0017557 234.8063 135.6906 14.85670803123610
AJISAI (EGS)            
1 16908U 86061A   26097.24935332 -.00000092  00000+0  38579-4 0  9997
2 16908  50.0122   5.5279 0011393   0.4748 180.4672 12.44515676471555
SL-14 R/B               
1 17567U 87024B   26097.18658044  .00000614  00000+0  66996-4 0  9997
2 17567  82.5269  65.9729 0018649 161.6969 198.4923 14.86162617 92362
COSMOS 1833             
1 17589U 87027A   26097.17624157 -.00000312  00000+0 -14123-3 0  9992
2 17589  70.9163 266.1408 0022849 171.7148 188.4355 14.13042720 14349
SL-16 R/B               
1 17590U 87027B   26097.27897875  .00000146  00000+0  96162-4 0  9991
2 17590  71.0032 216.2464 0002859  69.3332 290.8099 14.17169957 19391
SL-14 R/B               
1 17912U 87038B   26097.19616054  .00000573  00000+0  63496-4 0  9998
2 17912  82.4980 269.9443 0020672  71.9239 288.4227 14.85398484 83466
COSMOS 1844             
1 17973U 87041A   26097.11029084  .00000214  00000+0  13582-3 0  9994
2 17973  70.9015 334.2319 0031731 336.0852  23.8794 14.14563739  7607
SL-14 R/B               
1 18153U 87055B   26097.10063872  .00000467  00000+0  50960-4 0  9994
2 18153  82.4990 322.2562 0019131 280.6336  79.2726 14.85658434 74155
COSMOS 1867             
1 18187U 87060A   26096.80501593 -.00000001  00000+0  37184-4 0  9998
2 18187  65.0103 227.9645 0014995 280.2306  79.7087 14.31507820 23965
SL-14 R/B               
1 18749U 88001B   26097.16533128  .00000507  00000+0  55657-4 0  9992
2 18749  82.5154 168.5864 0019078 140.6589 219.6017 14.85560250 46251
COSMOS 1933             
1 18958U 88020A   26097.06673141  .00004723  00000+0  22898-3 0  9998
2 18958  82.5147 222.8297 0005410 100.6357 259.5486 15.18280956 54535
SL-3 R/B                
1 19046U 88032B   26097.23631814  .00005929  00000+0  27388-3 0  9998
2 19046  97.5230  80.4001 0027245 131.8518 228.5049 15.20247441 56447
SL-16 R/B               
1 19120U 88039B   26097.16532735 -.00000006  00000+0  19850-4 0  9990
2 19120  71.0175   8.3364 0023926 293.7285  66.1330 14.19620832962426
COSMOS 1953             
1 19210U 88050A   26097.16394580  .00008899  00000+0  31429-3 0  9999
2 19210  82.5054 129.5971 0011580  33.3228 326.8739 15.28997978 42132
